[{"OBJECT_NAME":"SL-12 R/B(2)","OBJECT_ID":"1988-034D","EPOCH":"2026-03-02T05:38:20.683968","MEAN_MOTION":1.00082674,"ECCENTRICITY":0.00220864,"INCLINATION":11.412,"RA_OF_ASC_NODE":328.2758,"ARG_OF_PERICENTER":189.6983,"MEAN_ANOMALY":329.8138,"EPHEMERIS_TYPE":0,"CLASSIFICATION_TYPE":"U","NORAD_CAT_ID":19076,"ELEMENT_SET_NO":999,"REV_AT_EPOCH":13803,"BSTAR":0,"MEAN_MOTION_DOT":-1.7e-7,"MEAN_MOTION_DDOT":0},{"OBJECT_NAME":"SL-12 R/B(2)","OBJECT_ID":"1988-036E","EPOCH":"2026-03-02T00:23:01.633632","MEAN_MOTION":1.01112073,"ECCENTRICITY":0.00204817,"INCLINATION":10.3205,"RA_OF_ASC_NODE":323.3504,"ARG_OF_PERICENTER":183.7926,"MEAN_ANOMALY":10.321,"EPHEMERIS_TYPE":0,"CLASSIFICATION_TYPE":"U","NORAD_CAT_ID":19094,"ELEMENT_SET_NO":999,"REV_AT_EPOCH":12074,"BSTAR":0,"MEAN_MOTION_DOT":3.2e-7,"MEAN_MOTION_DDOT":0},{"OBJECT_NAME":"INSAT-1C","OBJECT_ID":"1988-063A","EPOCH":"2026-03-02T18:51:57.508128","MEAN_MOTION":1.0024135,"ECCENTRICITY":0.0003646,"INCLINATION":11.4651,"RA_OF_ASC_NODE":328.4796,"ARG_OF_PERICENTER":126.5856,"MEAN_ANOMALY":76.9686,"EPHEMERIS_TYPE":0,"CLASSIFICATION_TYPE":"U","NORAD_CAT_ID":19330,"ELEMENT_SET_NO":999,"REV_AT_EPOCH":11927,"BSTAR":0,"MEAN_MOTION_DOT":-2.34e-6,"MEAN_MOTION_DDOT":0},{"OBJECT_NAME":"COSMOS 1961","OBJECT_ID":"1988-066A","EPOCH":"2026-03-02T14:58:04.815840","MEAN_MOTION":1.00275335,"ECCENTRICITY":0.0001713,"INCLINATION":11.5984,"RA_OF_ASC_NODE":330.4132,"ARG_OF_PERICENTER":159.5592,"MEAN_ANOMALY":335.0898,"EPHEMERIS_TYPE":0,"CLASSIFICATION_TYPE":"U","NORAD_CAT_ID":19344,"ELEMENT_SET_NO":999,"REV_AT_EPOCH":13794,"BSTAR":0,"MEAN_MOTION_DOT":-1.64e-6,"MEAN_MOTION_DDOT":0},{"OBJECT_NAME":"GORIZONT 16","OBJECT_ID":"1988-071A","EPOCH":"2026-03-02T00:24:16.514784","MEAN_MOTION":0.99987069,"ECCENTRICITY":0.00113919,"INCLINATION":11.6665,"RA_OF_ASC_NODE":330.5169,"ARG_OF_PERICENTER":76.5285,"MEAN_ANOMALY":115.1,"EPHEMERIS_TYPE":0,"CLASSIFICATION_TYPE":"U","NORAD_CAT_ID":19397,"ELEMENT_SET_NO":999,"REV_AT_EPOCH":13716,"BSTAR":0,"MEAN_MOTION_DOT":-1.13e-6,"MEAN_MOTION_DDOT":0},{"OBJECT_NAME":"SL-12 R/B(2)","OBJECT_ID":"1988-071D","EPOCH":"2026-03-01T22:49:18.120288","MEAN_MOTION":1.00543482,"ECCENTRICITY":0.0019197,"INCLINATION":11.3919,"RA_OF_ASC_NODE":329.7519,"ARG_OF_PERICENTER":240.8347,"MEAN_ANOMALY":314.9342,"EPHEMERIS_TYPE":0,"CLASSIFICATION_TYPE":"U","NORAD_CAT_ID":19400,"ELEMENT_SET_NO":999,"REV_AT_EPOCH":13162,"BSTAR":0,"MEAN_MOTION_DOT":1.19e-6,"MEAN_MOTION_DDOT":0},{"OBJECT_NAME":"USA 31","OBJECT_ID":"1988-077A","EPOCH":"2026-03-02T06:42:30.108096","MEAN_MOTION":2.00754791,"ECCENTRICITY":0.73058753,"INCLINATION":27.4135,"RA_OF_ASC_NODE":41.2747,"ARG_OF_PERICENTER":129.9365,"MEAN_ANOMALY":321.142,"EPHEMERIS_TYPE":0,"CLASSIFICATION_TYPE":"U","NORAD_CAT_ID":19458,"ELEMENT_SET_NO":999,"REV_AT_EPOCH":1317,"BSTAR":-0.0036684833,"MEAN_MOTION_DOT":-6.4e-6,"MEAN_MOTION_DDOT":0},{"OBJECT_NAME":"GSTAR 3","OBJECT_ID":"1988-081A","EPOCH":"2026-03-02T08:22:18.099840","MEAN_MOTION":1.00271976,"ECCENTRICITY":0.00045939,"INCLINATION":11.2706,"RA_OF_ASC_NODE":319.1619,"ARG_OF_PERICENTER":220.3892,"MEAN_ANOMALY":0.8779,"EPHEMERIS_TYPE":0,"CLASSIFICATION_TYPE":"U","NORAD_CAT_ID":19483,"ELEMENT_SET_NO":999,"REV_AT_EPOCH":13352,"BSTAR":0,"MEAN_MOTION_DOT":-1.15e-6,"MEAN_MOTION_DDOT":0},{"OBJECT_NAME":"SBS 5","OBJECT_ID":"1988-081B","EPOCH":"2026-03-02T18:42:27.275040","MEAN_MOTION":0.99793417,"ECCENTRICITY":0.0008479,"INCLINATION":14.5811,"RA_OF_ASC_NODE":1.7337,"ARG_OF_PERICENTER":316.669,"MEAN_ANOMALY":145.5555,"EPHEMERIS_TYPE":0,"CLASSIFICATION_TYPE":"U","NORAD_CAT_ID":19484,"ELEMENT_SET_NO":999,"REV_AT_EPOCH":4540,"BSTAR":0,"MEAN_MOTION_DOT":3.1e-7,"MEAN_MOTION_DDOT":0},{"OBJECT_NAME":"TITAN 34D TRANSTAGE R/B","OBJECT_ID":"1988-077C","EPOCH":"2026-02-26T18:02:21.520608","MEAN_MOTION":2.04159974,"ECCENTRICITY":0.73925699,"INCLINATION":26.2427,"RA_OF_ASC_NODE":118.2149,"ARG_OF_PERICENTER":272.6604,"MEAN_ANOMALY":12.956,"EPHEMERIS_TYPE":0,"CLASSIFICATION_TYPE":"U","NORAD_CAT_ID":19490,"ELEMENT_SET_NO":999,"REV_AT_EPOCH":5015,"BSTAR":0.0027484744,"MEAN_MOTION_DOT":2.11e-6,"MEAN_MOTION_DDOT":0},{"OBJECT_NAME":"TDRS 3","OBJECT_ID":"1988-091B","EPOCH":"2026-02-26T20:18:23.173920","MEAN_MOTION":1.00261626,"ECCENTRICITY":0.0044225,"INCLINATION":12.6852,"RA_OF_ASC_NODE":341.7287,"ARG_OF_PERICENTER":351.9002,"MEAN_ANOMALY":78.3575,"EPHEMERIS_TYPE":0,"CLASSIFICATION_TYPE":"U","NORAD_CAT_ID":19548,"ELEMENT_SET_NO":999,"REV_AT_EPOCH":12428,"BSTAR":0,"MEAN_MOTION_DOT":-3.06e-6,"MEAN_MOTION_DDOT":0},{"OBJECT_NAME":"IUS R/B(2)","OBJECT_ID":"1988-091D","EPOCH":"2026-03-02T10:26:21.219648","MEAN_MOTION":1.00479579,"ECCENTRICITY":0.00206182,"INCLINATION":12.3397,"RA_OF_ASC_NODE":331.7612,"ARG_OF_PERICENTER":304.1619,"MEAN_ANOMALY":330.032,"EPHEMERIS_TYPE":0,"CLASSIFICATION_TYPE":"U","NORAD_CAT_ID":19550,"ELEMENT_SET_NO":999,"REV_AT_EPOCH":12903,"BSTAR":0,"MEAN_MOTION_DOT":-3.01e-6,"MEAN_MOTION_DDOT":0},{"OBJECT_NAME":"RADUGA 22","OBJECT_ID":"1988-095A","EPOCH":"2026-03-02T18:00:04.148928","MEAN_MOTION":1.00170405,"ECCENTRICITY":0.0004566,"INCLINATION":11.6807,"RA_OF_ASC_NODE":330.8334,"ARG_OF_PERICENTER":205.9418,"MEAN_ANOMALY":351.6663,"EPHEMERIS_TYPE":0,"CLASSIFICATION_TYPE":"U","NORAD_CAT_ID":19596,"ELEMENT_SET_NO":999,"REV_AT_EPOCH":12058,"BSTAR":0,"MEAN_MOTION_DOT":-2.96e-6,"MEAN_MOTION_DDOT":0},{"OBJECT_NAME":"SL-6 R/B(2)","OBJECT_ID":"1988-096D","EPOCH":"2026-03-02T19:00:39.587904","MEAN_MOTION":2.04287458,"ECCENTRICITY":0.6268319,"INCLINATION":67.7839,"RA_OF_ASC_NODE":6.811,"ARG_OF_PERICENTER":32.9069,"MEAN_ANOMALY":353.6451,"EPHEMERIS_TYPE":0,"CLASSIFICATION_TYPE":"U","NORAD_CAT_ID":19611,"ELEMENT_SET_NO":999,"REV_AT_EPOCH":27854,"BSTAR":0,"MEAN_MOTION_DOT":-8.66e-6,"MEAN_MOTION_DDOT":0},{"OBJECT_NAME":"SKYNET 4B","OBJECT_ID":"1988-109A","EPOCH":"2026-03-01T21:14:35.441952","MEAN_MOTION":0.99666824,"ECCENTRICITY":0.0007767,"INCLINATION":13.202,"RA_OF_ASC_NODE":337.6668,"ARG_OF_PERICENTER":314.004,"MEAN_ANOMALY":238.3754,"EPHEMERIS_TYPE":0,"CLASSIFICATION_TYPE":"U","NORAD_CAT_ID":19687,"ELEMENT_SET_NO":999,"REV_AT_EPOCH":11709,"BSTAR":0,"MEAN_MOTION_DOT":9.5e-7,"MEAN_MOTION_DDOT":0},{"OBJECT_NAME":"STTW-3","OBJECT_ID":"1988-111A","EPOCH":"2026-03-01T16:52:36.288192","MEAN_MOTION":1.00193782,"ECCENTRICITY":0.00035347,"INCLINATION":14.1068,"RA_OF_ASC_NODE":346.3671,"ARG_OF_PERICENTER":196.2894,"MEAN_ANOMALY":300.2755,"EPHEMERIS_TYPE":0,"CLASSIFICATION_TYPE":"U","NORAD_CAT_ID":19710,"ELEMENT_SET_NO":999,"REV_AT_EPOCH":12976,"BSTAR":0,"MEAN_MOTION_DOT":-5.9e-7,"MEAN_MOTION_DDOT":0},{"OBJECT_NAME":"SL-6 R/B(2)","OBJECT_ID":"1989-011D","EPOCH":"2026-03-02T14:26:57.845760","MEAN_MOTION":2.04162288,"ECCENTRICITY":0.7123902,"INCLINATION":63.125,"RA_OF_ASC_NODE":213.9373,"ARG_OF_PERICENTER":43.421,"MEAN_ANOMALY":354.3253,"EPHEMERIS_TYPE":0,"CLASSIFICATION_TYPE":"U","NORAD_CAT_ID":19799,"ELEMENT_SET_NO":999,"REV_AT_EPOCH":23937,"BSTAR":0,"MEAN_MOTION_DOT":1.189e-5,"MEAN_MOTION_DDOT":0},{"OBJECT_NAME":"MOLNIYA 1-75","OBJECT_ID":"1989-014A","EPOCH":"2026-02-27T12:48:07.246080","MEAN_MOTION":2.00555514,"ECCENTRICITY":0.67638453,"INCLINATION":63.8314,"RA_OF_ASC_NODE":150.6765,"ARG_OF_PERICENTER":256.3681,"MEAN_ANOMALY":25.4238,"EPHEMERIS_TYPE":0,"CLASSIFICATION_TYPE":"U","NORAD_CAT_ID":19807,"ELEMENT_SET_NO":999,"REV_AT_EPOCH":27108,"BSTAR":0,"MEAN_MOTION_DOT":2.72e-6,"MEAN_MOTION_DDOT":0},{"OBJECT_NAME":"SL-6 R/B(2)","OBJECT_ID":"1989-014D","EPOCH":"2026-03-01T17:43:18.739776","MEAN_MOTION":2.0738691,"ECCENTRICITY":0.71469969,"INCLINATION":63.8655,"RA_OF_ASC_NODE":55.4623,"ARG_OF_PERICENTER":251.5815,"MEAN_ANOMALY":24.0261,"EPHEMERIS_TYPE":0,"CLASSIFICATION_TYPE":"U","NORAD_CAT_ID":19810,"ELEMENT_SET_NO":999,"REV_AT_EPOCH":28036,"BSTAR":0,"MEAN_MOTION_DOT":7.91e-6,"MEAN_MOTION_DDOT":0},{"OBJECT_NAME":"IUS R/B(2)","OBJECT_ID":"1989-021D","EPOCH":"2026-03-02T17:25:01.115040","MEAN_MOTION":1.00622456,"ECCENTRICITY":0.0022817,"INCLINATION":8.8783,"RA_OF_ASC_NODE":321.0434,"ARG_OF_PERICENTER":192.1413,"MEAN_ANOMALY":347.4232,"EPHEMERIS_TYPE":0,"CLASSIFICATION_TYPE":"U","NORAD_CAT_ID":19913,"ELEMENT_SET_NO":999,"REV_AT_EPOCH":12458,"BSTAR":0,"MEAN_MOTION_DOT":-2.26e-6,"MEAN_MOTION_DDOT":0},{"OBJECT_NAME":"RADUGA 23","OBJECT_ID":"1989-030A","EPOCH":"2026-03-02T16:23:25.423296","MEAN_MOTION":1.00263509,"ECCENTRICITY":0.0018763,"INCLINATION":11.9276,"RA_OF_ASC_NODE":332.6837,"ARG_OF_PERICENTER":209.1248,"MEAN_ANOMALY":343.4995,"EPHEMERIS_TYPE":0,"CLASSIFICATION_TYPE":"U","NORAD_CAT_ID":19928,"ELEMENT_SET_NO":999,"REV_AT_EPOCH":13378,"BSTAR":0,"MEAN_MOTION_DOT":-3.85e-6,"MEAN_MOTION_DDOT":0},{"OBJECT_NAME":"TITAN 34D TRANSTAGE R/B","OBJECT_ID":"1989-035C","EPOCH":"2026-03-02T14:28:50.996064","MEAN_MOTION":0.99431293,"ECCENTRICITY":0.1056003,"INCLINATION":8.1601,"RA_OF_ASC_NODE":5.0955,"ARG_OF_PERICENTER":54.7391,"MEAN_ANOMALY":314.682,"EPHEMERIS_TYPE":0,"CLASSIFICATION_TYPE":"U","NORAD_CAT_ID":19983,"ELEMENT_SET_NO":999,"REV_AT_EPOCH":2443,"BSTAR":0,"MEAN_MOTION_DOT":-2.15e-6,"MEAN_MOTION_DDOT":0},{"OBJECT_NAME":"SUPERBIRD-A","OBJECT_ID":"1989-041A","EPOCH":"2026-03-01T21:10:13.361376","MEAN_MOTION":0.9974838,"ECCENTRICITY":0.0004011,"INCLINATION":12.3002,"RA_OF_ASC_NODE":333.0339,"ARG_OF_PERICENTER":56.5161,"MEAN_ANOMALY":123.4059,"EPHEMERIS_TYPE":0,"CLASSIFICATION_TYPE":"U","NORAD_CAT_ID":20040,"ELEMENT_SET_NO":999,"REV_AT_EPOCH":13339,"BSTAR":0,"MEAN_MOTION_DOT":8.8e-7,"MEAN_MOTION_DDOT":0},{"OBJECT_NAME":"DFS 1","OBJECT_ID":"1989-041B","EPOCH":"2026-03-01T22:53:47.690016","MEAN_MOTION":1.0066391,"ECCENTRICITY":0.0016985,"INCLINATION":14.0421,"RA_OF_ASC_NODE":347.368,"ARG_OF_PERICENTER":309.0019,"MEAN_ANOMALY":246.1155,"EPHEMERIS_TYPE":0,"CLASSIFICATION_TYPE":"U","NORAD_CAT_ID":20041,"ELEMENT_SET_NO":999,"REV_AT_EPOCH":12341,"BSTAR":0,"MEAN_MOTION_DOT":8.0e-7,"MEAN_MOTION_DDOT":0}]
